start=new Date('2022-11-21T00:00:00.000Z').valueOf();
sats=[{"EPHEMERIS_TYPE":"0","ARG_OF_PERICENTER":"44.3849","OBJECT_ID":"2022-017BA","RA_OF_ASC_NODE":"339.3487","ECCENTRICITY":"0.00018730","REV_AT_EPOCH":"4231","TIME_SYSTEM":"UTC","FILE":"3664974","COUNTRY_CODE":"US","PERIOD":"95.438","MEAN_MOTION_DDOT":"0.0000000000000","MEAN_MOTION_DOT":"0.00000104","EPOCH":"2022-11-20T12:28:31.826784","OBJECT_NAME":"STARLINK-3603","SEMIMAJOR_AXIS":"6917.882","CENTER_NAME":"EARTH","OBJECT_TYPE":"PAYLOAD","MEAN_ELEMENT_THEORY":"SGP4","PERIAPSIS":"538.451","GP_ID":"218321493","TLE_LINE1":"1 51816U 22017BA  22324.51981281  .00000104  00000-0  24650-4 0  9997","CLASSIFICATION_TYPE":"U","DECAY_DATE":null,"SITE":"AFWTR","MEAN_MOTION":"15.08839600","RCS_SIZE":"LARGE","MEAN_ANOMALY":"315.7293","NORAD_CAT_ID":"51816","LAUNCH_DATE":"2022-02-25","BSTAR":"0.00002465000000","ELEMENT_SET_NO":"999","TLE_LINE2":"2 51816  53.2171 339.3487 0001873  44.3849 315.7293 15.08839600 42310","INCLINATION":"53.2171","REF_FRAME":"TEME","APOAPSIS":"541.042"},{"EPHEMERIS_TYPE":"0","ARG_OF_PERICENTER":"15.6031","OBJECT_ID":"2022-017BB","RA_OF_ASC_NODE":"246.8758","REV_AT_EPOCH":"4356","ECCENTRICITY":"0.00028930","TIME_SYSTEM":"UTC","FILE":"3665715","COUNTRY_CODE":"US","PERIOD":"91.329","OBJECT_NAME":"STARLINK-3596","SEMIMAJOR_AXIS":"6717.910","MEAN_MOTION_DDOT":"0.0000000000000","MEAN_MOTION_DOT":"-0.00002163","EPOCH":"2022-11-20T19:09:00.777024","CENTER_NAME":"EARTH","OBJECT_TYPE":"PAYLOAD","MEAN_ELEMENT_THEORY":"SGP4","PERIAPSIS":"337.831","GP_ID":"218362664","TLE_LINE1":"1 51817U 22017BB  22324.79792566 -.00002163  00000-0 -92070-5 0  9995","CLASSIFICATION_TYPE":"U","DECAY_DATE":null,"MEAN_MOTION":"15.76708851","SITE":"AFWTR","MEAN_ANOMALY":"344.5079","RCS_SIZE":"LARGE","NORAD_CAT_ID":"51817","LAUNCH_DATE":"2022-02-25","TLE_LINE2":"2 51817  53.1997 246.8758 0002893  15.6031 344.5079 15.76708851 43564","ELEMENT_SET_NO":"999","BSTAR":"-0.00000920700000","INCLINATION":"53.1997","REF_FRAME":"TEME","APOAPSIS":"341.718"},{"PERIAPSIS":"538.161","TLE_LINE1":"1 51852U 22022A   22324.87952853 -.00002639  00000-0 -14772-3 0  9995","CLASSIFICATION_TYPE":"U","GP_ID":"218361666","MEAN_MOTION":"15.08848864","SITE":"AFETR","DECAY_DATE":null,"MEAN_ANOMALY":"323.6250","RCS_SIZE":"LARGE","LAUNCH_DATE":"2022-03-03","NORAD_CAT_ID":"51852","ELEMENT_SET_NO":"999","TLE_LINE2":"2 51852  53.2185  27.7235 0002251  36.4895 323.6250 15.08848864 39878","BSTAR":"-0.00014772000000","INCLINATION":"53.2185","APOAPSIS":"541.276","REF_FRAME":"TEME","OBJECT_ID":"2022-022A","EPHEMERIS_TYPE":"0","ARG_OF_PERICENTER":"36.4895","RA_OF_ASC_NODE":"27.7235","TIME_SYSTEM":"UTC","REV_AT_EPOCH":"3987","ECCENTRICITY":"0.00022510","COUNTRY_CODE":"US","FILE":"3665715","OBJECT_NAME":"STARLINK-3542","SEMIMAJOR_AXIS":"6917.853","MEAN_MOTION_DDOT":"0.0000000000000","EPOCH":"2022-11-20T21:06:31.264992","MEAN_MOTION_DOT":"-0.00002639","PERIOD":"95.437","CENTER_NAME":"EARTH","OBJECT_TYPE":"PAYLOAD","MEAN_ELEMENT_THEORY":"SGP4"},{"INCLINATION":"53.2187","APOAPSIS":"541.156","REF_FRAME":"TEME","LAUNCH_DATE":"2022-03-03","NORAD_CAT_ID":"51853","BSTAR":"-0.00000108030000","ELEMENT_SET_NO":"999","TLE_LINE2":"2 51853  53.2187  27.7125 0002023  45.0754 315.0402 15.08836411 41070","SITE":"AFETR","MEAN_MOTION":"15.08836411","DECAY_DATE":null,"RCS_SIZE":"MEDIUM","MEAN_ANOMALY":"315.0402","PERIAPSIS":"538.357","CLASSIFICATION_TYPE":"U","TLE_LINE1":"1 51853U 22022B   22324.88321327 -.00000305  00000-0 -10803-5 0  9994","GP_ID":"218335027","OBJECT_TYPE":"PAYLOAD","MEAN_ELEMENT_THEORY":"SGP4","MEAN_MOTION_DDOT":"0.0000000000000","MEAN_MOTION_DOT":"-0.00000305","EPOCH":"2022-11-20T21:11:49.626528","SEMIMAJOR_AXIS":"6917.891","OBJECT_NAME":"STARLINK-3539","PERIOD":"95.438","CENTER_NAME":"EARTH","TIME_SYSTEM":"UTC","ECCENTRICITY":"0.00020230","REV_AT_EPOCH":"4107","COUNTRY_CODE":"US","FILE":"3665561","OBJECT_ID":"2022-022B","EPHEMERIS_TYPE":"0","ARG_OF_PERICENTER":"45.0754","RA_OF_ASC_NODE":"27.7125"},{"DECAY_DATE":null,"MEAN_MOTION":"15.08840271","SITE":"AFETR","MEAN_ANOMALY":"322.5141","RCS_SIZE":"LARGE","PERIAPSIS":"538.184","GP_ID":"218362668","TLE_LINE1":"1 51854U 22022C   22324.87585061  .00000751  00000-0  65323-4 0  9990","CLASSIFICATION_TYPE":"U","INCLINATION":"53.2175","REF_FRAME":"TEME","APOAPSIS":"541.305","NORAD_CAT_ID":"51854","LAUNCH_DATE":"2022-03-03","TLE_LINE2":"2 51854  53.2175  27.7363 0002256  37.6008 322.5141 15.08840271 41138","ELEMENT_SET_NO":"999","BSTAR":"0.00006532300000","REV_AT_EPOCH":"4113","ECCENTRICITY":"0.00022560","TIME_SYSTEM":"UTC","FILE":"3665715","COUNTRY_CODE":"US","ARG_OF_PERICENTER":"37.6008","EPHEMERIS_TYPE":"0","OBJECT_ID":"2022-022C","RA_OF_ASC_NODE":"27.7363","OBJECT_TYPE":"PAYLOAD","MEAN_ELEMENT_THEORY":"SGP4","PERIOD":"95.438","OBJECT_NAME":"STARLINK-3541","SEMIMAJOR_AXIS":"6917.880","MEAN_MOTION_DOT":"0.00000751","MEAN_MOTION_DDOT":"0.0000000000000","EPOCH":"2022-11-20T21:01:13.492704","CENTER_NAME":"EARTH"},{"REF_FRAME":"TEME","APOAPSIS":"541.376","INCLINATION":"53.2186","BSTAR":"0.00008280200000","ELEMENT_SET_NO":"999","TLE_LINE2":"2 51855  53.2186  28.6720 0002348  32.1681 327.9454 15.08837985 41052","NORAD_CAT_ID":"51855","LAUNCH_DATE":"2022-03-03","RCS_SIZE":"LARGE","MEAN_ANOMALY":"327.9454","DECAY_DATE":null,"SITE":"AFETR","MEAN_MOTION":"15.08837985","GP_ID":"218362419","CLASSIFICATION_TYPE":"U","TLE_LINE1":"1 51855U 22022D   22324.66976783  .00001030  00000-0  82802-4 0  9995","PERIAPSIS":"538.127","MEAN_ELEMENT_THEORY":"SGP4","OBJECT_TYPE":"PAYLOAD","CENTER_NAME":"EARTH","PERIOD":"95.438","EPOCH":"2022-11-20T16:04:27.940512","MEAN_MOTION_DDOT":"0.0000000000000","MEAN_MOTION_DOT":"0.00001030","SEMIMAJOR_AXIS":"6917.887","OBJECT_NAME":"STARLINK-3545","FILE":"3665715","COUNTRY_CODE":"US","ECCENTRICITY":"0.00023480","REV_AT_EPOCH":"4105","TIME_SYSTEM":"UTC","RA_OF_ASC_NODE":"28.6720","EPHEMERIS_TYPE":"0","ARG_OF_PERICENTER":"32.1681","OBJECT_ID":"2022-022D"},{"CENTER_NAME":"EARTH","OBJECT_NAME":"STARLINK-3568","SEMIMAJOR_AXIS":"6917.892","MEAN_MOTION_DOT":"0.00000094","MEAN_MOTION_DDOT":"0.0000000000000","EPOCH":"2022-11-20T20:55:56.139456","PERIOD":"95.438","MEAN_ELEMENT_THEORY":"SGP4","OBJECT_TYPE":"PAYLOAD","RA_OF_ASC_NODE":"27.7635","OBJECT_ID":"2022-022E","ARG_OF_PERICENTER":"40.9770","EPHEMERIS_TYPE":"0","COUNTRY_CODE":"US","FILE":"3665561","TIME_SYSTEM":"UTC","ECCENTRICITY":"0.00022450","REV_AT_EPOCH":"4116","TLE_LINE2":"2 51856  53.2197  27.7635 0002245  40.9770 319.1390 15.08836359 41160","ELEMENT_SET_NO":"999","BSTAR":"0.00002403000000","LAUNCH_DATE":"2022-03-03","NORAD_CAT_ID":"51856","APOAPSIS":"541.310","REF_FRAME":"TEME","INCLINATION":"53.2197","TLE_LINE1":"1 51856U 22022E   22324.87217754  .00000094  00000-0  24030-4 0  9993","CLASSIFICATION_TYPE":"U","GP_ID":"218335033","PERIAPSIS":"538.203","MEAN_ANOMALY":"319.1390","RCS_SIZE":"LARGE","MEAN_MOTION":"15.08836359","SITE":"AFETR","DECAY_DATE":null},{"PERIAPSIS":"538.375","CLASSIFICATION_TYPE":"U","TLE_LINE1":"1 51857U 22022F   22324.46368813  .00000552  00000-0  52773-4 0  9996","GP_ID":"218291639","MEAN_MOTION":"15.08841431","SITE":"AFETR","DECAY_DATE":null,"MEAN_ANOMALY":"315.2603","RCS_SIZE":"LARGE","LAUNCH_DATE":"2022-03-03","NORAD_CAT_ID":"51857","ELEMENT_SET_NO":"999","TLE_LINE2":"2 51857  53.2195  29.5920 0001974  44.8549 315.2603 15.08841431 41072","BSTAR":"0.00005277300000","INCLINATION":"53.2195","APOAPSIS":"541.107","REF_FRAME":"TEME","OBJECT_ID":"2022-022F","ARG_OF_PERICENTER":"44.8549","EPHEMERIS_TYPE":"0","RA_OF_ASC_NODE":"29.5920","TIME_SYSTEM":"UTC","REV_AT_EPOCH":"4107","ECCENTRICITY":"0.00019740","COUNTRY_CODE":"US","FILE":"3664760","SEMIMAJOR_AXIS":"6917.876","OBJECT_NAME":"STARLINK-3571","MEAN_MOTION_DOT":"0.00000552","MEAN_MOTION_DDOT":"0.0000000000000","EPOCH":"2022-11-20T11:07:42.654432","PERIOD":"95.437","CENTER_NAME":"EARTH","OBJECT_TYPE":"PAYLOAD","MEAN_ELEMENT_THEORY":"SGP4"},{"RA_OF_ASC_NODE":"29.5813","ARG_OF_PERICENTER":"42.2445","EPHEMERIS_TYPE":"0","OBJECT_ID":"2022-022G","FILE":"3664760","COUNTRY_CODE":"US","ECCENTRICITY":"0.00019480","REV_AT_EPOCH":"4107","TIME_SYSTEM":"UTC","CENTER_NAME":"EARTH","PERIOD":"95.437","MEAN_MOTION_DDOT":"0.0000000000000","MEAN_MOTION_DOT":"0.00003986","EPOCH":"2022-11-20T11:13:00.520032","SEMIMAJOR_AXIS":"6917.850","OBJECT_NAME":"STARLINK-3563","MEAN_ELEMENT_THEORY":"SGP4","OBJECT_TYPE":"PAYLOAD","GP_ID":"218291889","TLE_LINE1":"1 51858U 22022G   22324.46736713  .00003986  00000-0  26831-3 0  9994","CLASSIFICATION_TYPE":"U","PERIAPSIS":"538.367","RCS_SIZE":"LARGE","MEAN_ANOMALY":"317.8697","DECAY_DATE":null,"SITE":"AFETR","MEAN_MOTION":"15.08849964","BSTAR":"0.00026831000000","ELEMENT_SET_NO":"999","TLE_LINE2":"2 51858  53.2190  29.5813 0001948  42.2445 317.8697 15.08849964 41077","NORAD_CAT_ID":"51858","LAUNCH_DATE":"2022-03-03","REF_FRAME":"TEME","APOAPSIS":"541.063","INCLINATION":"53.2190"},{"MEAN_ELEMENT_THEORY":"SGP4","OBJECT_TYPE":"PAYLOAD","CENTER_NAME":"EARTH","PERIOD":"95.438","SEMIMAJOR_AXIS":"6917.902","OBJECT_NAME":"STARLINK-3560","MEAN_MOTION_DDOT":"0.0000000000000","MEAN_MOTION_DOT":"0.00000843","EPOCH":"2022-11-20T21:07:51.427776","FILE":"3665715","COUNTRY_CODE":"US","ECCENTRICITY":"0.00021360","REV_AT_EPOCH":"4127","TIME_SYSTEM":"UTC","RA_OF_ASC_NODE":"17.7117","EPHEMERIS_TYPE":"0","ARG_OF_PERICENTER":"41.8156","OBJECT_ID":"2022-022H","REF_FRAME":"TEME","APOAPSIS":"541.245","INCLINATION":"53.2202","TLE_LINE2":"2 51859  53.2202  17.7117 0002136  41.8156 318.2999 15.08832876 41278","ELEMENT_SET_NO":"999","BSTAR":"0.00007105300000","NORAD_CAT_ID":"51859","LAUNCH_DATE":"2022-03-03","MEAN_ANOMALY":"318.2999","RCS_SIZE":"LARGE","DECAY_DATE":null,"MEAN_MOTION":"15.08832876","SITE":"AFETR","GP_ID":"218362919","TLE_LINE1":"1 51859U 22022H   22324.88045634  .00000843  00000-0  71053-4 0  9992","CLASSIFICATION_TYPE":"U","PERIAPSIS":"538.290"}];
